{"type": "FeatureCollection", "features": [ {"type": "Feature", "properties": {"norad_id": 66526, "name": "STARLINK-35932", "group": "last-30-days", "lat": -30.471758163666482, "lon": 26.712080636416903, "alt_km": 416.97047215396015, "timestamp": "2025-12-10T16:57:10.415759+00:00", "meta": {"OBJECT_NAME": "STARLINK-35932", "OBJECT_ID": "2025-265L", "EPOCH": "2025-12-10T12:00:02.998944", "MEAN_MOTION": 15.50709195, "ECCENTRICITY": 0.0001342, "INCLINATION": 42.9998, "RA_OF_ASC_NODE": 67.0742, "ARG_OF_PERICENTER": 274.3413, "MEAN_ANOMALY": 324.4312, "EPHEMERIS_TYPE": 0, "CLASSIFICATION_TYPE": "U", "NORAD_CAT_ID": 66526, "ELEMENT_SET_NO": 999, "REV_AT_EPOCH": 452, "BSTAR": -0.0048468, "MEAN_MOTION_DOT": -0.0027616, "MEAN_MOTION_DDOT": 0}, "tle": {"line1": "1 66526U 25265L   25344.50003471 -.00276160  00000+0 -48468-2 0  9998", "line2": "2 66526  42.9998  67.0742 0001342 274.3413 324.4312 15.50709195  4520"}}, "geometry": {"type": "Point", "coordinates": [26.712080636416903, -30.471758163666482]}}, {"type": "Feature", "properties": {"norad_id": 66527, "name": "STARLINK-35935", "group": "last-30-days", "lat": -29.45416831464735, "lon": 28.559476550820907, "alt_km": 417.0185649798068, "timestamp": "2025-12-10T16:57:10.415768+00:00", "meta": {"OBJECT_NAME": "STARLINK-35935", "OBJECT_ID": "2025-265M", "EPOCH": "2025-12-10T12:00:02.998944", "MEAN_MOTION": 15.5066886, "ECCENTRICITY": 0.0001265, "INCLINATION": 42.9995, "RA_OF_ASC_NODE": 67.0697, "ARG_OF_PERICENTER": 272.7018, "MEAN_ANOMALY": 327.9915, "EPHEMERIS_TYPE": 0, "CLASSIFICATION_TYPE": "U", "NORAD_CAT_ID": 66527, "ELEMENT_SET_NO": 999, "REV_AT_EPOCH": 463, "BSTAR": -0.0036328, "MEAN_MOTION_DOT": -0.00208548, "MEAN_MOTION_DDOT": 0}, "tle": {"line1": "1 66527U 25265M   25344.50003471 -.00208548  00000+0 -36328-2 0  9996", "line2": "2 66527  42.9995  67.0697 0001265 272.7018 327.9915 15.50668860  4636"}}, "geometry": {"type": "Point", "coordinates": [28.559476550820907, -29.45416831464735]}}, {"type": "Feature", "properties": {"norad_id": 66528, "name": "STARLINK-35928", "group": "last-30-days", "lat": -28.41027456590586, "lon": 30.37205161978705, "alt_km": 416.8968170701846, "timestamp": "2025-12-10T16:57:10.415778+00:00", "meta": {"OBJECT_NAME": "STARLINK-35928", "OBJECT_ID": "2025-265N", "EPOCH": "2025-12-10T12:00:02.998944", "MEAN_MOTION": 15.50637497, "ECCENTRICITY": 0.0001304, "INCLINATION": 43, "RA_OF_ASC_NODE": 67.0644, "ARG_OF_PERICENTER": 280.7325, "MEAN_ANOMALY": 321.881, "EPHEMERIS_TYPE": 0, "CLASSIFICATION_TYPE": "U", "NORAD_CAT_ID": 66528, "ELEMENT_SET_NO": 999, "REV_AT_EPOCH": 463, "BSTAR": -0.0026262, "MEAN_MOTION_DOT": -0.00151776, "MEAN_MOTION_DDOT": 0}, "tle": {"line1": "1 66528U 25265N   25344.50003471 -.00151776  00000+0 -26262-2 0  9993", "line2": "2 66528  43.0000  67.0644 0001304 280.7325 321.8810 15.50637497  4631"}}, "geometry": {"type": "Point", "coordinates": [30.37205161978705, -28.41027456590586]}}, {"type": "Feature", "properties": {"norad_id": 66529, "name": "STARLINK-35933", "group": "last-30-days", "lat": -27.334468414227647, "lon": 32.161677823963934, "alt_km": 416.89486405061143, "timestamp": "2025-12-10T16:57:10.415790+00:00", "meta": {"OBJECT_NAME": "STARLINK-35933", "OBJECT_ID": "2025-265P", "EPOCH": "2025-12-10T12:00:02.998944", "MEAN_MOTION": 15.50631758, "ECCENTRICITY": 0.0001486, "INCLINATION": 42.9997, "RA_OF_ASC_NODE": 67.0597, "ARG_OF_PERICENTER": 268.1217, "MEAN_ANOMALY": 336.4086, "EPHEMERIS_TYPE": 0, "CLASSIFICATION_TYPE": "U", "NORAD_CAT_ID": 66529, "ELEMENT_SET_NO": 999, "REV_AT_EPOCH": 463, "BSTAR": -0.0024593, "MEAN_MOTION_DOT": -0.00142296, "MEAN_MOTION_DDOT": 0}, "tle": {"line1": "1 66529U 25265P   25344.50003471 -.00142296  00000+0 -24593-2 0  9996", "line2": "2 66529  42.9997  67.0597 0001486 268.1217 336.4086 15.50631758  4634"}}, "geometry": {"type": "Point", "coordinates": [32.161677823963934, -27.334468414227647]}}, {"type": "Feature", "properties": {"norad_id": 66530, "name": "STARLINK-35961", "group": "last-30-days", "lat": -26.23390932114493, "lon": 33.919848809952896, "alt_km": 416.7821065739581, "timestamp": "2025-12-10T16:57:10.415802+00:00", "meta": {"OBJECT_NAME": "STARLINK-35961", "OBJECT_ID": "2025-265Q", "EPOCH": "2025-12-10T12:00:02.998944", "MEAN_MOTION": 15.50640333, "ECCENTRICITY": 0.000142, "INCLINATION": 42.9998, "RA_OF_ASC_NODE": 67.0543, "ARG_OF_PERICENTER": 274.3345, "MEAN_ANOMALY": 332.1154, "EPHEMERIS_TYPE": 0, "CLASSIFICATION_TYPE": "U", "NORAD_CAT_ID": 66530, "ELEMENT_SET_NO": 999, "REV_AT_EPOCH": 463, "BSTAR": -0.0026625, "MEAN_MOTION_DOT": -0.00153845, "MEAN_MOTION_DDOT": 0}, "tle": {"line1": "1 66530U 25265Q   25344.50003471 -.00153845  00000+0 -26625-2 0  9998", "line2": "2 66530  42.9998  67.0543 0001420 274.3345 332.1154 15.50640333  4635"}}, "geometry": {"type": "Point", "coordinates": [33.919848809952896, -26.23390932114493]}}, {"type": "Feature", "properties": {"norad_id": 66531, "name": "STARLINK-35960", "group": "last-30-days", "lat": -25.095624037393723, "lon": 35.67116258307204, "alt_km": 416.8312639701762, "timestamp": "2025-12-10T16:57:10.415813+00:00", "meta": {"OBJECT_NAME": "STARLINK-35960", "OBJECT_ID": "2025-265R", "EPOCH": "2025-12-10T12:00:02.998944", "MEAN_MOTION": 15.50728487, "ECCENTRICITY": 0.0001173, "INCLINATION": 42.9998, "RA_OF_ASC_NODE": 67.0505, "ARG_OF_PERICENTER": 268.0862, "MEAN_ANOMALY": 340.2743, "EPHEMERIS_TYPE": 0, "CLASSIFICATION_TYPE": "U", "NORAD_CAT_ID": 66531, "ELEMENT_SET_NO": 999, "REV_AT_EPOCH": 463, "BSTAR": -0.0054253, "MEAN_MOTION_DOT": -0.0030805, "MEAN_MOTION_DDOT": 0}, "tle": {"line1": "1 66531U 25265R   25344.50003471 -.00308050  00000+0 -54253-2 0  9997", "line2": "2 66531  42.9998  67.0505 0001173 268.0862 340.2743 15.50728487  4634"}}, "geometry": {"type": "Point", "coordinates": [35.67116258307204, -25.095624037393723]}}, {"type": "Feature", "properties": {"norad_id": 66532, "name": "STARLINK-35914", "group": "last-30-days", "lat": -23.96680271444826, "lon": 37.344572422038084, "alt_km": 416.6464831785461, "timestamp": "2025-12-10T16:57:10.415825+00:00", "meta": {"OBJECT_NAME": "STARLINK-35914", "OBJECT_ID": "2025-265S", "EPOCH": "2025-12-10T12:00:02.998944", "MEAN_MOTION": 15.50698548, "ECCENTRICITY": 0.0001334, "INCLINATION": 42.9995, "RA_OF_ASC_NODE": 67.0451, "ARG_OF_PERICENTER": 274.9048, "MEAN_ANOMALY": 335.3703, "EPHEMERIS_TYPE": 0, "CLASSIFICATION_TYPE": "U", "NORAD_CAT_ID": 66532, "ELEMENT_SET_NO": 999, "REV_AT_EPOCH": 463, "BSTAR": -0.0045517, "MEAN_MOTION_DOT": -0.00259803, "MEAN_MOTION_DDOT": 0}, "tle": {"line1": "1 66532U 25265S   25344.50003471 -.00259803  00000+0 -45517-2 0  9992", "line2": "2 66532  42.9995  67.0451 0001334 274.9048 335.3703 15.50698548  4638"}}, "geometry": {"type": "Point", "coordinates": [37.344572422038084, -23.96680271444826]}}, {"type": "Feature", "properties": {"norad_id": 66533, "name": "STARLINK-35707", "group": "last-30-days", "lat": -22.820854905843184, "lon": 38.98853419681978, "alt_km": 416.64831465574207, "timestamp": "2025-12-10T16:57:10.415837+00:00", "meta": {"OBJECT_NAME": "STARLINK-35707", "OBJECT_ID": "2025-265T", "EPOCH": "2025-12-10T12:00:02.998944", "MEAN_MOTION": 15.50631822, "ECCENTRICITY": 0.0001418, "INCLINATION": 42.9996, "RA_OF_ASC_NODE": 67.0403, "ARG_OF_PERICENTER": 270.9164, "MEAN_ANOMALY": 341.2871, "EPHEMERIS_TYPE": 0, "CLASSIFICATION_TYPE": "U", "NORAD_CAT_ID": 66533, "ELEMENT_SET_NO": 999, "REV_AT_EPOCH": 463, "BSTAR": -0.0024159, "MEAN_MOTION_DOT": -0.00139832, "MEAN_MOTION_DDOT": 0}, "tle": {"line1": "1 66533U 25265T   25344.50003471 -.00139832  00000+0 -24159-2 0  9991", "line2": "2 66533  42.9996  67.0403 0001418 270.9164 341.2871 15.50631822  4639"}}, "geometry": {"type": "Point", "coordinates": [38.98853419681978, -22.820854905843184]}}, {"type": "Feature", "properties": {"norad_id": 66534, "name": "STARLINK-35976", "group": "last-30-days", "lat": -21.64579400254084, "lon": 40.62196246301692, "alt_km": 416.5656327569259, "timestamp": "2025-12-10T16:57:10.415847+00:00", "meta": {"OBJECT_NAME": "STARLINK-35976", "OBJECT_ID": "2025-265U", "EPOCH": "2025-12-10T12:00:02.998944", "MEAN_MOTION": 15.50642405, "ECCENTRICITY": 0.0001434, "INCLINATION": 42.9997, "RA_OF_ASC_NODE": 67.0357, "ARG_OF_PERICENTER": 270.867, "MEAN_ANOMALY": 343.251, "EPHEMERIS_TYPE": 0, "CLASSIFICATION_TYPE": "U", "NORAD_CAT_ID": 66534, "ELEMENT_SET_NO": 999, "REV_AT_EPOCH": 463, "BSTAR": -0.0027619, "MEAN_MOTION_DOT": -0.00159472, "MEAN_MOTION_DDOT": 0}, "tle": {"line1": "1 66534U 25265U   25344.50003471 -.00159472  00000+0 -27619-2 0  9998", "line2": "2 66534  42.9997  67.0357 0001434 270.8670 343.2510 15.50642405  4639"}}, "geometry": {"type": "Point", "coordinates": [40.62196246301692, -21.64579400254084]}}, {"type": "Feature", "properties": {"norad_id": 66535, "name": "STARLINK-35514", "group": "last-30-days", "lat": -20.46009578556501, "lon": 42.22170950752245, "alt_km": 416.5112752312707, "timestamp": "2025-12-10T16:57:10.415857+00:00", "meta": {"OBJECT_NAME": "STARLINK-35514", "OBJECT_ID": "2025-265V", "EPOCH": "2025-12-10T12:00:02.998944", "MEAN_MOTION": 15.5063046, "ECCENTRICITY": 0.0001381, "INCLINATION": 42.9997, "RA_OF_ASC_NODE": 67.031, "ARG_OF_PERICENTER": 271.3142, "MEAN_ANOMALY": 344.7202, "EPHEMERIS_TYPE": 0, "CLASSIFICATION_TYPE": "U", "NORAD_CAT_ID": 66535, "ELEMENT_SET_NO": 999, "REV_AT_EPOCH": 463, "BSTAR": -0.002305, "MEAN_MOTION_DOT": -0.00133529, "MEAN_MOTION_DDOT": 0}, "tle": {"line1": "1 66535U 25265V   25344.50003471 -.00133529  00000+0 -23050-2 0  9999", "line2": "2 66535  42.9997  67.0310 0001381 271.3142 344.7202 15.50630460  4632"}}, "geometry": {"type": "Point", "coordinates": [42.22170950752245, -20.46009578556501]}}]}